[{"OBJECT_NAME":"STARLINK-11360 [DTC]","OBJECT_ID":"2024-187N","EPOCH":"2025-11-21T16:06:08.478144","MEAN_MOTION":15.69718983,"ECCENTRICITY":8.84e-5,"INCLINATION":53.1592,"RA_OF_ASC_NODE":108.8253,"ARG_OF_PERICENTER":88.8756,"MEAN_ANOMALY":271.2363,"EPHEMERIS_TYPE":0,"CLASSIFICATION_TYPE":"U","NORAD_CAT_ID":61586,"ELEMENT_SET_NO":999,"REV_AT_EPOCH":6383,"BSTAR":1.5875e-5,"MEAN_MOTION_DOT":1.336e-5,"MEAN_MOTION_DDOT":0},{"OBJECT_NAME":"STARLINK-32353","OBJECT_ID":"2024-187P","EPOCH":"2025-11-22T02:38:13.577568","MEAN_MOTION":15.30171917,"ECCENTRICITY":0.0001188,"INCLINATION":53.1577,"RA_OF_ASC_NODE":204.6576,"ARG_OF_PERICENTER":87.2881,"MEAN_ANOMALY":272.8256,"EPHEMERIS_TYPE":0,"CLASSIFICATION_TYPE":"U","NORAD_CAT_ID":61587,"ELEMENT_SET_NO":999,"REV_AT_EPOCH":6255,"BSTAR":0.00036392,"MEAN_MOTION_DOT":0.00010425,"MEAN_MOTION_DDOT":0},{"OBJECT_NAME":"STARLINK-32325","OBJECT_ID":"2024-187Q","EPOCH":"2025-11-21T22:23:25.463040","MEAN_MOTION":15.30191401,"ECCENTRICITY":0.0001331,"INCLINATION":53.1611,"RA_OF_ASC_NODE":205.6962,"ARG_OF_PERICENTER":76.3757,"MEAN_ANOMALY":283.7392,"EPHEMERIS_TYPE":0,"CLASSIFICATION_TYPE":"U","NORAD_CAT_ID":61588,"ELEMENT_SET_NO":999,"REV_AT_EPOCH":6258,"BSTAR":-5.9599e-6,"MEAN_MOTION_DOT":-5.36e-6,"MEAN_MOTION_DDOT":0},{"OBJECT_NAME":"STARLINK-32416","OBJECT_ID":"2024-187R","EPOCH":"2025-11-22T00:16:47.937216","MEAN_MOTION":15.39607174,"ECCENTRICITY":0.000121,"INCLINATION":53.1603,"RA_OF_ASC_NODE":191.2622,"ARG_OF_PERICENTER":77.624,"MEAN_ANOMALY":282.49,"EPHEMERIS_TYPE":0,"CLASSIFICATION_TYPE":"U","NORAD_CAT_ID":61589,"ELEMENT_SET_NO":999,"REV_AT_EPOCH":6279,"BSTAR":-2.0438e-5,"MEAN_MOTION_DOT":-1.216e-5,"MEAN_MOTION_DDOT":0},{"OBJECT_NAME":"STARLINK-32413","OBJECT_ID":"2024-187S","EPOCH":"2025-11-22T01:55:51.356064","MEAN_MOTION":15.30179256,"ECCENTRICITY":0.000136,"INCLINATION":53.1601,"RA_OF_ASC_NODE":205.1808,"ARG_OF_PERICENTER":72.7341,"MEAN_ANOMALY":287.3808,"EPHEMERIS_TYPE":0,"CLASSIFICATION_TYPE":"U","NORAD_CAT_ID":61590,"ELEMENT_SET_NO":999,"REV_AT_EPOCH":6260,"BSTAR":-3.0388e-5,"MEAN_MOTION_DOT":-1.258e-5,"MEAN_MOTION_DDOT":0},{"OBJECT_NAME":"STARLINK-32409","OBJECT_ID":"2024-187T","EPOCH":"2025-11-22T00:03:54.844704","MEAN_MOTION":15.39603149,"ECCENTRICITY":0.0001383,"INCLINATION":53.1615,"RA_OF_ASC_NODE":191.2041,"ARG_OF_PERICENTER":90.5623,"MEAN_ANOMALY":269.5541,"EPHEMERIS_TYPE":0,"CLASSIFICATION_TYPE":"U","NORAD_CAT_ID":61591,"ELEMENT_SET_NO":999,"REV_AT_EPOCH":6279,"BSTAR":-3.0192e-5,"MEAN_MOTION_DOT":-1.606e-5,"MEAN_MOTION_DDOT":0},{"OBJECT_NAME":"STARLINK-32422","OBJECT_ID":"2024-187U","EPOCH":"2025-11-22T00:50:34.470816","MEAN_MOTION":15.39601585,"ECCENTRICITY":0.0001486,"INCLINATION":53.159,"RA_OF_ASC_NODE":190.6975,"ARG_OF_PERICENTER":96.3037,"MEAN_ANOMALY":263.8137,"EPHEMERIS_TYPE":0,"CLASSIFICATION_TYPE":"U","NORAD_CAT_ID":61592,"ELEMENT_SET_NO":999,"REV_AT_EPOCH":6280,"BSTAR":-5.0592e-5,"MEAN_MOTION_DOT":-2.421e-5,"MEAN_MOTION_DDOT":0},{"OBJECT_NAME":"STARLINK-32397","OBJECT_ID":"2024-187V","EPOCH":"2025-11-21T22:30:16.207776","MEAN_MOTION":15.30179149,"ECCENTRICITY":0.0001514,"INCLINATION":53.1607,"RA_OF_ASC_NODE":203.5849,"ARG_OF_PERICENTER":91.675,"MEAN_ANOMALY":268.4424,"EPHEMERIS_TYPE":0,"CLASSIFICATION_TYPE":"U","NORAD_CAT_ID":61593,"ELEMENT_SET_NO":999,"REV_AT_EPOCH":6261,"BSTAR":-1.48e-5,"MEAN_MOTION_DOT":-7.97e-6,"MEAN_MOTION_DDOT":0},{"OBJECT_NAME":"STARLINK-32302","OBJECT_ID":"2024-191A","EPOCH":"2025-11-22T05:19:37.058016","MEAN_MOTION":15.27573643,"ECCENTRICITY":0.0001496,"INCLINATION":43.0025,"RA_OF_ASC_NODE":41.1666,"ARG_OF_PERICENTER":273.7344,"MEAN_ANOMALY":86.3337,"EPHEMERIS_TYPE":0,"CLASSIFICATION_TYPE":"U","NORAD_CAT_ID":61621,"ELEMENT_SET_NO":999,"REV_AT_EPOCH":6185,"BSTAR":6.4295e-6,"MEAN_MOTION_DOT":-8.5e-7,"MEAN_MOTION_DDOT":0},{"OBJECT_NAME":"STARLINK-32364","OBJECT_ID":"2024-191B","EPOCH":"2025-11-21T06:02:03.833664","MEAN_MOTION":15.27584487,"ECCENTRICITY":9.91e-5,"INCLINATION":43.0007,"RA_OF_ASC_NODE":46.7774,"ARG_OF_PERICENTER":273.2469,"MEAN_ANOMALY":86.8269,"EPHEMERIS_TYPE":0,"CLASSIFICATION_TYPE":"U","NORAD_CAT_ID":61622,"ELEMENT_SET_NO":999,"REV_AT_EPOCH":6095,"BSTAR":-1.659e-5,"MEAN_MOTION_DOT":-7.18e-6,"MEAN_MOTION_DDOT":0},{"OBJECT_NAME":"STARLINK-32331","OBJECT_ID":"2024-191C","EPOCH":"2025-11-22T05:52:12.997632","MEAN_MOTION":15.27576579,"ECCENTRICITY":0.0001188,"INCLINATION":43.0053,"RA_OF_ASC_NODE":44.8053,"ARG_OF_PERICENTER":250.3916,"MEAN_ANOMALY":109.6807,"EPHEMERIS_TYPE":0,"CLASSIFICATION_TYPE":"U","NORAD_CAT_ID":61623,"ELEMENT_SET_NO":999,"REV_AT_EPOCH":6106,"BSTAR":1.499e-5,"MEAN_MOTION_DOT":1.5e-6,"MEAN_MOTION_DDOT":0},{"OBJECT_NAME":"STARLINK-32398","OBJECT_ID":"2024-191D","EPOCH":"2025-11-21T06:18:43.131744","MEAN_MOTION":15.27586047,"ECCENTRICITY":6.08e-5,"INCLINATION":43.0042,"RA_OF_ASC_NODE":46.8697,"ARG_OF_PERICENTER":282.1953,"MEAN_ANOMALY":77.883,"EPHEMERIS_TYPE":0,"CLASSIFICATION_TYPE":"U","NORAD_CAT_ID":61624,"ELEMENT_SET_NO":999,"REV_AT_EPOCH":6095,"BSTAR":-9.1554e-5,"MEAN_MOTION_DOT":-2.781e-5,"MEAN_MOTION_DDOT":0},{"OBJECT_NAME":"STARLINK-32365","OBJECT_ID":"2024-191E","EPOCH":"2025-11-21T05:50:57.802848","MEAN_MOTION":15.27579866,"ECCENTRICITY":9.26e-5,"INCLINATION":43.0004,"RA_OF_ASC_NODE":46.722,"ARG_OF_PERICENTER":257.3145,"MEAN_ANOMALY":102.7603,"EPHEMERIS_TYPE":0,"CLASSIFICATION_TYPE":"U","NORAD_CAT_ID":61625,"ELEMENT_SET_NO":999,"REV_AT_EPOCH":6095,"BSTAR":5.7211e-5,"MEAN_MOTION_DOT":1.313e-5,"MEAN_MOTION_DDOT":0},{"OBJECT_NAME":"STARLINK-32333","OBJECT_ID":"2024-191F","EPOCH":"2025-11-22T06:08:52.808064","MEAN_MOTION":15.27572705,"ECCENTRICITY":0.0001007,"INCLINATION":43.0025,"RA_OF_ASC_NODE":44.8898,"ARG_OF_PERICENTER":281.9373,"MEAN_ANOMALY":78.1366,"EPHEMERIS_TYPE":0,"CLASSIFICATION_TYPE":"U","NORAD_CAT_ID":61626,"ELEMENT_SET_NO":999,"REV_AT_EPOCH":6106,"BSTAR":-5.0268e-6,"MEAN_MOTION_DOT":-4.0e-6,"MEAN_MOTION_DDOT":0},{"OBJECT_NAME":"STARLINK-32399","OBJECT_ID":"2024-191G","EPOCH":"2025-11-22T04:53:14.668800","MEAN_MOTION":15.27579565,"ECCENTRICITY":0.0001698,"INCLINATION":43.0018,"RA_OF_ASC_NODE":34.0991,"ARG_OF_PERICENTER":270.6301,"MEAN_ANOMALY":89.4356,"EPHEMERIS_TYPE":0,"CLASSIFICATION_TYPE":"U","NORAD_CAT_ID":61627,"ELEMENT_SET_NO":999,"REV_AT_EPOCH":6118,"BSTAR":-5.2141e-7,"MEAN_MOTION_DOT":-2.77e-6,"MEAN_MOTION_DDOT":0},{"OBJECT_NAME":"STARLINK-32421","OBJECT_ID":"2024-191H","EPOCH":"2025-11-22T06:00:19.663776","MEAN_MOTION":15.27574264,"ECCENTRICITY":8.63e-5,"INCLINATION":43.0024,"RA_OF_ASC_NODE":41.3796,"ARG_OF_PERICENTER":287.1104,"MEAN_ANOMALY":72.9653,"EPHEMERIS_TYPE":0,"CLASSIFICATION_TYPE":"U","NORAD_CAT_ID":61628,"ELEMENT_SET_NO":999,"REV_AT_EPOCH":6110,"BSTAR":2.4285e-5,"MEAN_MOTION_DOT":4.06e-6,"MEAN_MOTION_DDOT":0},{"OBJECT_NAME":"STARLINK-32403","OBJECT_ID":"2024-191J","EPOCH":"2025-11-21T06:13:10.445088","MEAN_MOTION":15.27575301,"ECCENTRICITY":0.0001058,"INCLINATION":43.0044,"RA_OF_ASC_NODE":46.8384,"ARG_OF_PERICENTER":286.4279,"MEAN_ANOMALY":73.6456,"EPHEMERIS_TYPE":0,"CLASSIFICATION_TYPE":"U","NORAD_CAT_ID":61629,"ELEMENT_SET_NO":999,"REV_AT_EPOCH":6095,"BSTAR":1.8941e-5,"MEAN_MOTION_DOT":2.59e-6,"MEAN_MOTION_DDOT":0}]
