STARLINK-11360 [DTC]    
1 61586U 24187N   25325.67093146  .00001336  00000+0  15875-4 0  9993
2 61586  53.1592 108.8253 0000884  88.8756 271.2363 15.69718983 63833
STARLINK-32353          
1 61587U 24187P   25326.10987937  .00010425  00000+0  36392-3 0  9998
2 61587  53.1577 204.6576 0001188  87.2881 272.8256 15.30171917 62554
STARLINK-32325          
1 61588U 24187Q   25325.93293360 -.00000536  00000+0 -59599-5 0  9999
2 61588  53.1611 205.6962 0001331  76.3757 283.7392 15.30191401 62580
STARLINK-32416          
1 61589U 24187R   25326.01166594 -.00001216  00000+0 -20438-4 0  9993
2 61589  53.1603 191.2622 0001210  77.6240 282.4900 15.39607174 62794
STARLINK-32413          
1 61590U 24187S   25326.08045551 -.00001258  00000+0 -30388-4 0  9992
2 61590  53.1601 205.1808 0001360  72.7341 287.3808 15.30179256 62606
STARLINK-32409          
1 61591U 24187T   25326.00271811 -.00001606  00000+0 -30192-4 0  9995
2 61591  53.1615 191.2041 0001383  90.5623 269.5541 15.39603149 62790
STARLINK-32422          
1 61592U 24187U   25326.03512119 -.00002421  00000+0 -50592-4 0  9990
2 61592  53.1590 190.6975 0001486  96.3037 263.8137 15.39601585 62801
STARLINK-32397          
1 61593U 24187V   25325.93768759 -.00000797  00000+0 -14800-4 0  9998
2 61593  53.1607 203.5849 0001514  91.6750 268.4424 15.30179149 62613
STARLINK-32302          
1 61621U 24191A   25326.22195669 -.00000085  00000+0  64295-5 0  9995
2 61621  43.0025  41.1666 0001496 273.7344  86.3337 15.27573643 61859
STARLINK-32364          
1 61622U 24191B   25325.25143326 -.00000718  00000+0 -16590-4 0  9999
2 61622  43.0007  46.7774 0000991 273.2469  86.8269 15.27584487 60950
STARLINK-32331          
1 61623U 24191C   25326.24459488  .00000150  00000+0  14990-4 0  9999
2 61623  43.0053  44.8053 0001188 250.3916 109.6807 15.27576579 61061
STARLINK-32398          
1 61624U 24191D   25325.26299921 -.00002781  00000+0 -91554-4 0  9990
2 61624  43.0042  46.8697 0000608 282.1953  77.8830 15.27586047 60956
STARLINK-32365          
1 61625U 24191E   25325.24372457  .00001313  00000+0  57211-4 0  9995
2 61625  43.0004  46.7220 0000926 257.3145 102.7603 15.27579866 60953
STARLINK-32333          
1 61626U 24191F   25326.25616676 -.00000400  00000+0 -50268-5 0  9996
2 61626  43.0025  44.8898 0001007 281.9373  78.1366 15.27572705 61064
STARLINK-32399          
1 61627U 24191G   25326.20364200 -.00000277  00000+0 -52141-6 0  9990
2 61627  43.0018  34.0991 0001698 270.6301  89.4356 15.27579565 61182
STARLINK-32421          
1 61628U 24191H   25326.25022759  .00000406  00000+0  24285-4 0  9994
2 61628  43.0024  41.3796 0000863 287.1104  72.9653 15.27574264 61101
STARLINK-32403          
1 61629U 24191J   25325.25914867  .00000259  00000+0  18941-4 0  9992
2 61629  43.0044  46.8384 0001058 286.4279  73.6456 15.27575301 60953
